[{"OBJECT_NAME":"STARLINK-35439","OBJECT_ID":"2025-259K","EPOCH":"2026-03-09T22:47:37.272480","MEAN_MOTION":15.27602329,"ECCENTRICITY":0.00011733,"INCLINATION":43.0027,"RA_OF_ASC_NODE":272.6558,"ARG_OF_PERICENTER":24.4646,"MEAN_ANOMALY":335.6262,"EPHEMERIS_TYPE":0,"CLASSIFICATION_TYPE":"U","NORAD_CAT_ID":66431,"ELEMENT_SET_NO":999,"REV_AT_EPOCH":1953,"BSTAR":0.0011824295,"MEAN_MOTION_DOT":0.00032441,"MEAN_MOTION_DDOT":0},{"OBJECT_NAME":"CZ-4B DEB","OBJECT_ID":"2008-053J","EPOCH":"2026-03-09T11:59:22.469568","MEAN_MOTION":15.1637526,"ECCENTRICITY":0.00601661,"INCLINATION":97.7872,"RA_OF_ASC_NODE":170.5072,"ARG_OF_PERICENTER":304.792,"MEAN_ANOMALY":54.7659,"EPHEMERIS_TYPE":0,"CLASSIFICATION_TYPE":"U","NORAD_CAT_ID":35573,"ELEMENT_SET_NO":999,"REV_AT_EPOCH":91868,"BSTAR":0.0017688276,"MEAN_MOTION_DOT":0.00036031,"MEAN_MOTION_DDOT":0}]
